0 DELTA 1 DEB
1 07061U 73086BD  13282.06869343  .00000152  00000-0  11948-2 0  9817
2 07061 102.4482 203.3241 0142309 015.4950 054.7766 12.54929986826461
0 DELTA 1 DEB
1 07061U 73086BD  13286.76208723  .00000241  00000-0  17254-2 0  9834
2 07061 102.4491 208.2571 0142324 006.8322 018.2357 12.54932373827056
0 DELTA 1 DEB
1 07061U 73086BD  13289.26516337  .00000202  00000-0  14899-2 0  9845
2 07061 102.4493 210.8880 0142301 002.2156 166.4566 12.54933553827363
0 DELTA 1 DEB
1 07061U 73086BD  13291.40431694  .00000180  00000-0  13644-2 0  9859
2 07061 102.4494 213.1366 0142298 358.2852 110.5653 12.54934427827639
0 DELTA 1 DEB
1 07061U 73086BD  13293.78611767  .00000170  00000-0  12996-2 0  9862
2 07061 102.4493 215.6404 0142274 353.8772 070.9267 12.54935249827930
